CCSDS_OMM_VERS = 2.0
CREATION_DATE  = 
ORIGINATOR     = 

OBJECT_NAME    = ATLAS CENTAUR R/B
OBJECT_ID      = 1972-065B
CENTER_NAME    = EARTH
REF_FRAME      = TEME
TIME_SYSTEM    = UTC
MEAN_ELEMENT_THEORY = SGP/SGP4

EPOCH          = 2026-03-11T17:17:31.315776
MEAN_MOTION    = 14.77693310
ECCENTRICITY   = .003329
INCLINATION    = 35.0014
RA_OF_ASC_NODE = 293.8531
ARG_OF_PERICENTER = 26.0532
MEAN_ANOMALY   = 334.1836

EPHEMERIS_TYPE = 0
CLASSIFICATION_TYPE = U
NORAD_CAT_ID   = 6155
ELEMENT_SET_NO = 999
REV_AT_EPOCH   = 84156
BSTAR          = .20999E-3
MEAN_MOTION_DOT = .1518E-4
MEAN_MOTION_DDOT = 0

CCSDS_OMM_VERS = 2.0
CREATION_DATE  = 
ORIGINATOR     = 

OBJECT_NAME    = SL-8 R/B
OBJECT_ID      = 1975-112B
CENTER_NAME    = EARTH
REF_FRAME      = TEME
TIME_SYSTEM    = UTC
MEAN_ELEMENT_THEORY = SGP/SGP4

EPOCH          = 2026-03-11T20:50:03.745824
MEAN_MOTION    = 14.38205069
ECCENTRICITY   = .0014403
INCLINATION    = 74.0631
RA_OF_ASC_NODE = 14.9047
ARG_OF_PERICENTER = 107.2959
MEAN_ANOMALY   = 252.9772

EPHEMERIS_TYPE = 0
CLASSIFICATION_TYPE = U
NORAD_CAT_ID   = 8459
ELEMENT_SET_NO = 999
REV_AT_EPOCH   = 63218
BSTAR          = .10069E-3
MEAN_MOTION_DOT = .28E-5
MEAN_MOTION_DDOT = 0

CCSDS_OMM_VERS = 2.0
CREATION_DATE  = 
ORIGINATOR     = 

OBJECT_NAME    = SL-3 R/B
OBJECT_ID      = 1977-057B
CENTER_NAME    = EARTH
REF_FRAME      = TEME
TIME_SYSTEM    = UTC
MEAN_ELEMENT_THEORY = SGP/SGP4

EPOCH          = 2026-03-11T18:58:47.504640
MEAN_MOTION    = 15.45559126
ECCENTRICITY   = .0006169
INCLINATION    = 97.5778
RA_OF_ASC_NODE = 242.8038
ARG_OF_PERICENTER = 276.2514
MEAN_ANOMALY   = 83.8032

EPHEMERIS_TYPE = 0
CLASSIFICATION_TYPE = U
NORAD_CAT_ID   = 10114
ELEMENT_SET_NO = 999
REV_AT_EPOCH   = 66865
BSTAR          = .29138E-3
MEAN_MOTION_DOT = .13923E-3
MEAN_MOTION_DDOT = 0

CCSDS_OMM_VERS = 2.0
CREATION_DATE  = 
ORIGINATOR     = 

OBJECT_NAME    = SEASAT 1
OBJECT_ID      = 1978-064A
CENTER_NAME    = EARTH
REF_FRAME      = TEME
TIME_SYSTEM    = UTC
MEAN_ELEMENT_THEORY = SGP/SGP4

EPOCH          = 2026-03-11T20:21:04.608000
MEAN_MOTION    = 14.46162096
ECCENTRICITY   = .0002351
INCLINATION    = 108.0105
RA_OF_ASC_NODE = 130.0287
ARG_OF_PERICENTER = 285.4844
MEAN_ANOMALY   = 74.6042

EPHEMERIS_TYPE = 0
CLASSIFICATION_TYPE = U
NORAD_CAT_ID   = 10967
ELEMENT_SET_NO = 999
REV_AT_EPOCH   = 50682
BSTAR          = .11244E-3
MEAN_MOTION_DOT = .265E-5
MEAN_MOTION_DDOT = 0

CCSDS_OMM_VERS = 2.0
CREATION_DATE  = 
ORIGINATOR     = 

OBJECT_NAME    = SL-14 R/B
OBJECT_ID      = 1979-011B
CENTER_NAME    = EARTH
REF_FRAME      = TEME
TIME_SYSTEM    = UTC
MEAN_ELEMENT_THEORY = SGP/SGP4

EPOCH          = 2026-03-11T19:03:03.556224
MEAN_MOTION    = 14.91910978
ECCENTRICITY   = .0017312
INCLINATION    = 82.5206
RA_OF_ASC_NODE = 94.5738
ARG_OF_PERICENTER = 54.0663
MEAN_ANOMALY   = 306.2159

EPHEMERIS_TYPE = 0
CLASSIFICATION_TYPE = U
NORAD_CAT_ID   = 11267
ELEMENT_SET_NO = 999
REV_AT_EPOCH   = 52909
BSTAR          = .63025E-4
MEAN_MOTION_DOT = .665E-5
MEAN_MOTION_DDOT = 0

CCSDS_OMM_VERS = 2.0
CREATION_DATE  = 
ORIGINATOR     = 

OBJECT_NAME    = SL-8 R/B
OBJECT_ID      = 1979-089B
CENTER_NAME    = EARTH
REF_FRAME      = TEME
TIME_SYSTEM    = UTC
MEAN_ELEMENT_THEORY = SGP/SGP4

EPOCH          = 2026-03-11T18:09:58.618944
MEAN_MOTION    = 14.42352142
ECCENTRICITY   = .0017134
INCLINATION    = 74.0667
RA_OF_ASC_NODE = 87.2163
ARG_OF_PERICENTER = 259.6606
MEAN_ANOMALY   = 100.2619

EPHEMERIS_TYPE = 0
CLASSIFICATION_TYPE = U
NORAD_CAT_ID   = 11574
ELEMENT_SET_NO = 999
REV_AT_EPOCH   = 43640
BSTAR          = .10333E-3
MEAN_MOTION_DOT = .315E-5
MEAN_MOTION_DDOT = 0

CCSDS_OMM_VERS = 2.0
CREATION_DATE  = 
ORIGINATOR     = 

OBJECT_NAME    = SL-14 R/B
OBJECT_ID      = 1980-005B
CENTER_NAME    = EARTH
REF_FRAME      = TEME
TIME_SYSTEM    = UTC
MEAN_ELEMENT_THEORY = SGP/SGP4

EPOCH          = 2026-03-11T21:00:27.029376
MEAN_MOTION    = 14.90932896
ECCENTRICITY   = .0016378
INCLINATION    = 82.5141
RA_OF_ASC_NODE = 305.1632
ARG_OF_PERICENTER = 151.3122
MEAN_ANOMALY   = 208.9001

EPHEMERIS_TYPE = 0
CLASSIFICATION_TYPE = U
NORAD_CAT_ID   = 11672
ELEMENT_SET_NO = 999
REV_AT_EPOCH   = 47681
BSTAR          = .57277E-4
MEAN_MOTION_DOT = .592E-5
MEAN_MOTION_DDOT = 0

CCSDS_OMM_VERS = 2.0
CREATION_DATE  = 
ORIGINATOR     = 

OBJECT_NAME    = SL-8 R/B
OBJECT_ID      = 1981-003B
CENTER_NAME    = EARTH
REF_FRAME      = TEME
TIME_SYSTEM    = UTC
MEAN_ELEMENT_THEORY = SGP/SGP4

EPOCH          = 2026-03-11T20:31:16.378752
MEAN_MOTION    = 15.11064511
ECCENTRICITY   = .0261949
INCLINATION    = 82.9386
RA_OF_ASC_NODE = 288.0216
ARG_OF_PERICENTER = 171.1106
MEAN_ANOMALY   = 189.4906

EPHEMERIS_TYPE = 0
CLASSIFICATION_TYPE = U
NORAD_CAT_ID   = 12139
ELEMENT_SET_NO = 999
REV_AT_EPOCH   = 31500
BSTAR          = .49376E-3
MEAN_MOTION_DOT = .19297E-3
MEAN_MOTION_DDOT = 0

CCSDS_OMM_VERS = 2.0
CREATION_DATE  = 
ORIGINATOR     = 

OBJECT_NAME    = SL-3 R/B
OBJECT_ID      = 1981-046B
CENTER_NAME    = EARTH
REF_FRAME      = TEME
TIME_SYSTEM    = UTC
MEAN_ELEMENT_THEORY = SGP/SGP4

EPOCH          = 2026-03-11T19:06:19.721376
MEAN_MOTION    = 15.42055117
ECCENTRICITY   = .0019362
INCLINATION    = 81.2299
RA_OF_ASC_NODE = 287.2145
ARG_OF_PERICENTER = 15.1247
MEAN_ANOMALY   = 345.0570

EPHEMERIS_TYPE = 0
CLASSIFICATION_TYPE = U
NORAD_CAT_ID   = 12465
ELEMENT_SET_NO = 999
REV_AT_EPOCH   = 43875
BSTAR          = .28925E-3
MEAN_MOTION_DOT = .12468E-3
MEAN_MOTION_DDOT = 0

CCSDS_OMM_VERS = 2.0
CREATION_DATE  = 
ORIGINATOR     = 

OBJECT_NAME    = SL-3 R/B
OBJECT_ID      = 1981-103B
CENTER_NAME    = EARTH
REF_FRAME      = TEME
TIME_SYSTEM    = UTC
MEAN_ELEMENT_THEORY = SGP/SGP4

EPOCH          = 2026-03-11T21:02:46.377024
MEAN_MOTION    = 15.21405205
ECCENTRICITY   = .0012314
INCLINATION    = 81.1585
RA_OF_ASC_NODE = 210.8662
ARG_OF_PERICENTER = 278.9801
MEAN_ANOMALY   = 81.0036

EPHEMERIS_TYPE = 0
CLASSIFICATION_TYPE = U
NORAD_CAT_ID   = 12904
ELEMENT_SET_NO = 999
REV_AT_EPOCH   = 97356
BSTAR          = .27661E-3
MEAN_MOTION_DOT = .6242E-4
MEAN_MOTION_DDOT = 0

CCSDS_OMM_VERS = 2.0
CREATION_DATE  = 
ORIGINATOR     = 

OBJECT_NAME    = SL-3 R/B
OBJECT_ID      = 1982-013B
CENTER_NAME    = EARTH
REF_FRAME      = TEME
TIME_SYSTEM    = UTC
MEAN_ELEMENT_THEORY = SGP/SGP4

EPOCH          = 2026-03-11T19:38:24.714240
MEAN_MOTION    = 15.22040884
ECCENTRICITY   = .0022717
INCLINATION    = 81.1759
RA_OF_ASC_NODE = 158.2762
ARG_OF_PERICENTER = 170.3530
MEAN_ANOMALY   = 189.8143

EPHEMERIS_TYPE = 0
CLASSIFICATION_TYPE = U
NORAD_CAT_ID   = 13068
ELEMENT_SET_NO = 999
REV_AT_EPOCH   = 40467
BSTAR          = .1836E-3
MEAN_MOTION_DOT = .4251E-4
MEAN_MOTION_DDOT = 0

CCSDS_OMM_VERS = 2.0
CREATION_DATE  = 
ORIGINATOR     = 

OBJECT_NAME    = SL-3 R/B
OBJECT_ID      = 1982-039B
CENTER_NAME    = EARTH
REF_FRAME      = TEME
TIME_SYSTEM    = UTC
MEAN_ELEMENT_THEORY = SGP/SGP4

EPOCH          = 2026-03-11T20:14:33.343008
MEAN_MOTION    = 15.10095403
ECCENTRICITY   = .0029631
INCLINATION    = 81.1580
RA_OF_ASC_NODE = 213.4789
ARG_OF_PERICENTER = 317.4486
MEAN_ANOMALY   = 42.4443

EPHEMERIS_TYPE = 0
CLASSIFICATION_TYPE = U
NORAD_CAT_ID   = 13154
ELEMENT_SET_NO = 999
REV_AT_EPOCH   = 38196
BSTAR          = .17276E-3
MEAN_MOTION_DOT = .2865E-4
MEAN_MOTION_DDOT = 0

