ATLAS CENTAUR R/B       
1 06155U 72065B   26070.72050134  .00001518  00000+0  20999-3 0  9990
2 06155  35.0014 293.8531 0033290  26.0532 334.1836 14.77693310841561
SL-8 R/B                
1 08459U 75112B   26070.86809891  .00000280  00000+0  10069-3 0  9994
2 08459  74.0631  14.9047 0014403 107.2959 252.9772 14.38205069632181
SL-3 R/B                
1 10114U 77057B   26070.79082760  .00013923  00000+0  29138-3 0  9990
2 10114  97.5778 242.8038 0006169 276.2514  83.8032 15.45559126668656
SEASAT 1                
1 10967U 78064A   26070.84797000  .00000265  00000+0  11244-3 0  9995
2 10967 108.0105 130.0287 0002351 285.4844  74.6042 14.46162096506820
SL-14 R/B               
1 11267U 79011B   26070.79379116  .00000665  00000+0  63025-4 0  9999
2 11267  82.5206  94.5738 0017312  54.0663 306.2159 14.91910978529096
SL-8 R/B                
1 11574U 79089B   26070.75692846  .00000315  00000+0  10333-3 0  9994
2 11574  74.0667  87.2163 0017134 259.6606 100.2619 14.42352142436401
SL-14 R/B               
1 11672U 80005B   26070.87531284  .00000592  00000+0  57277-4 0  9990
2 11672  82.5141 305.1632 0016378 151.3122 208.9001 14.90932896476817
SL-8 R/B                
1 12139U 81003B   26070.85505068  .00019297  00000+0  49376-3 0  9999
2 12139  82.9386 288.0216 0261949 171.1106 189.4906 15.11064511315000
SL-3 R/B                
1 12465U 81046B   26070.79606159  .00012468  00000+0  28925-3 0  9994
2 12465  81.2299 287.2145 0019362  15.1247 345.0570 15.42055117438753
SL-3 R/B                
1 12904U 81103B   26070.87692566  .00006242  00000+0  27661-3 0  9991
2 12904  81.1585 210.8662 0012314 278.9801  81.0036 15.21405205973560
SL-3 R/B                
1 13068U 82013B   26070.81834160  .00004251  00000+0  18360-3 0  9990
2 13068  81.1759 158.2762 0022717 170.3530 189.8143 15.22040884404679
SL-3 R/B                
1 13154U 82039B   26070.84344147  .00002865  00000+0  17276-3 0  9992
2 13154  81.1580 213.4789 0029631 317.4486  42.4443 15.10095403381963
